NORAD_CAT_ID,OBJECT_NAME,OBJECT_TYPE,EPOCH,MEAN_MOTION,ECCENTRICITY,INCLINATION,RA_OF_ASC_NODE,ARG_OF_PERICENTER,MEAN_ANOMALY,BSTAR,MEAN_MOTION_DOT,MEAN_MOTION_DDOT,TLE_LINE0,TLE_LINE1,TLE_LINE2,SEMIMAJOR_AXIS,PERIOD,APOGEE,PERIGEE,DECAYED
52620.0,STARLINK-3975,PAYLOAD,2023-09-14 17:06:30,15.08828929,0.0001221,53.2177,35.6973,87.3364,272.7768,-0.00010867,-2.016e-05,0.0,0 STARLINK-3975,1 52620U 22052Y   23257.71285289 -.00002016  00000-0 -10867-3 0  9993,2 52620  53.2177  35.6973 0001221  87.3364 272.7768 15.08828929 73856,6917.914,95.438,540.624,538.935,0.0
52620.0,STARLINK-3975,PAYLOAD,2023-09-15 09:00:21,15.0883847,9.92e-05,53.2175,32.7217,92.5661,267.5445,0.00010941,1.454e-05,0.0,0 STARLINK-3975,1 52620U 22052Y   23258.37525123  .00001454  00000-0  10941-3 0  9996,2 52620  53.2175  32.7217 0000992  92.5661 267.5445 15.08838470 74335,6917.885,95.438,540.436,539.064,0.0
52620.0,STARLINK-3975,PAYLOAD,2023-09-15 13:46:30,15.08849716,0.0001132,53.2177,31.8321,80.115,279.997,0.0002793,4.161e-05,0.0,0 STARLINK-3975,1 52620U 22052Y   23258.57396603  .00004161  00000-0  27930-3 0  9991,2 52620  53.2177  31.8321 0001132  80.1150 279.9970 15.08849716 73981,6917.851,95.437,540.499,538.933,0.0
52620.0,STARLINK-3975,PAYLOAD,2023-09-15 15:21:53,15.08852522,0.0001615,53.2185,31.536,53.2326,306.8814,0.00033572,5.061e-05,0.0,0 STARLINK-3975,1 52620U 22052Y   23258.64020678  .00005061  00000-0  33572-3 0  9994,2 52620  53.2185  31.5360 0001615  53.2326 306.8814 15.08852522 74372,6917.842,95.437,540.824,538.59,0.0
52620.0,STARLINK-3975,PAYLOAD,2023-09-16 08:51:08,15.08848063,0.0001241,53.2175,28.2618,105.7925,254.3204,0.00037224,5.643e-05,0.0,0 STARLINK-3975,1 52620U 22052Y   23259.36884939  .00005643  00000-0  37224-3 0  9996,2 52620  53.2175  28.2618 0001241 105.7925 254.3204 15.08848063 74480,6917.856,95.437,540.579,538.862,0.0
52620.0,STARLINK-3975,PAYLOAD,2023-09-16 13:37:17,15.08849782,0.0001331,53.2179,27.3693,111.8285,248.2849,0.00022983,3.373e-05,0.0,0 STARLINK-3975,1 52620U 22052Y   23259.56756717  .00003373  00000-0  22983-3 0  9994,2 52620  53.2179  27.3693 0001331 111.8285 248.2849 15.08849782 74132,6917.85,95.437,540.636,538.795,0.0
52620.0,STARLINK-3975,PAYLOAD,2023-09-17 13:28:04,15.08853524,0.0001327,53.2194,22.9141,84.8604,275.254,0.00035229,5.325e-05,0.0,0 STARLINK-3975,1 52620U 22052Y   23260.56116703  .00005325  00000-0  35229-3 0  9997,2 52620  53.2194  22.9141 0001327  84.8604 275.2540 15.08853524 74280,6917.839,95.437,540.622,538.786,0.0
52620.0,STARLINK-3975,PAYLOAD,2023-09-18 13:18:52,15.08841602,0.0001515,53.22,18.4552,95.7132,264.4033,0.00012253,1.663e-05,0.0,0 STARLINK-3975,1 52620U 22052Y   23261.55477045  .00001663  00000-0  12253-3 0  9999,2 52620  53.2200  18.4552 0001515  95.7132 264.4033 15.08841602 74438,6917.875,95.437,540.789,538.692,0.0
52620.0,STARLINK-3975,PAYLOAD,2023-09-19 13:09:38,15.08862518,0.0001522,53.2187,13.9933,100.5232,259.5931,0.00048375,7.424e-05,0.0,0 STARLINK-3975,1 52620U 22052Y   23262.54835972  .00007424  00000-0  48375-3 0  9991,2 52620  53.2187  13.9933 0001522 100.5232 259.5931 15.08862518 74968,6917.812,95.436,540.729,538.624,0.0
52620.0,STARLINK-3975,PAYLOAD,2023-09-20 06:38:53,15.08843372,0.0001654,53.218,10.7218,68.2499,291.8669,7.3892e-05,8.88e-06,0.0,0 STARLINK-3975,1 52620U 22052Y   23263.27700724  .00000888  00000-0  73892-4 0  9998,2 52620  53.2180  10.7218 0001654  68.2499 291.8669 15.08843372 75070,6917.87,95.437,540.879,538.591,0.0
52620.0,STARLINK-3975,PAYLOAD,2023-09-20 14:35:49,15.08822234,0.0001593,53.2183,9.2356,59.7767,300.3382,-0.00034768,-5.814e-05,0.0,0 STARLINK-3975,1 52620U 22052Y   23263.60821305 -.00005814  00000-0 -34768-3 0  9998,2 52620  53.2183   9.2356 0001593  59.7767 300.3382 15.08822234 74749,6917.935,95.439,540.902,538.698,0.0
52620.0,STARLINK-3975,PAYLOAD,2023-09-21 08:05:04,15.08837363,0.0001411,53.2173,5.9642,62.3812,297.7324,0.001072,0.00016813,0.0,0 STARLINK-3975,1 52620U 22052Y   23264.33686016  .00016813  00000-0  10720-2 0  9997,2 52620  53.2173   5.9642 0001411  62.3812 297.7324 15.08837363 75238,6917.888,95.438,540.73,538.777,0.0
52620.0,STARLINK-3975,PAYLOAD,2023-09-21 12:51:14,15.08849978,0.0001512,53.2175,5.0717,62.2104,297.9041,0.0012983,0.0002044,0.0,0 STARLINK-3975,1 52620U 22052Y   23264.53557883  .00020440  00000-0  12983-2 0  9992,2 52620  53.2175   5.0717 0001512  62.2104 297.9041 15.08849978 74882,6917.85,95.437,540.761,538.669,0.0
52620.0,STARLINK-3975,PAYLOAD,2023-09-21 14:26:37,15.088559,0.0001668,53.2173,4.7748,52.5551,307.5593,0.001412,0.00022265,0.0,0 STARLINK-3975,1 52620U 22052Y   23264.60181839  .00022265  00000-0  14120-2 0  9996,2 52620  53.2173   4.7748 0001668  52.5551 307.5593 15.08855900 74893,6917.832,95.437,540.851,538.543,0.0
52620.0,STARLINK-3975,PAYLOAD,2023-09-22 11:06:37,15.08857211,0.0002083,53.2171,0.9082,73.7171,286.405,0.00074996,0.00011673,0.0,0 STARLINK-3975,1 52620U 22052Y   23265.46293685  .00011673  00000-0  74996-3 0  9993,2 52620  53.2171   0.9082 0002083  73.7171 286.4050 15.08857211 75403,6917.828,95.436,541.134,538.252,0.0
52620.0,STARLINK-3975,PAYLOAD,2023-09-22 12:42:00,15.08855727,0.0001568,53.2175,0.6114,71.8556,288.2607,0.00067274,0.00010439,0.0,0 STARLINK-3975,1 52620U 22052Y   23265.52917531  .00010439  00000-0  67274-3 0  9993,2 52620  53.2175   0.6114 0001568  71.8556 288.2607 15.08855727 75030,6917.832,95.437,540.782,538.613,0.0
52620.0,STARLINK-3975,PAYLOAD,2023-09-22 23:49:42,15.0885746,0.0001546,53.217,358.5306,66.8074,293.3081,0.00086791,0.00013558,0.0,0 STARLINK-3975,1 52620U 22052Y   23265.99285371  .00013558  00000-0  86791-3 0  9994,2 52620  53.2170 358.5306 0001546  66.8074 293.3081 15.08857460 75486,6917.827,95.436,540.762,538.623,0.0
52620.0,STARLINK-3975,PAYLOAD,2023-09-23 12:32:47,15.08844378,0.0001717,53.2182,356.1518,77.4181,282.7003,0.00020496,2.976e-05,0.0,0 STARLINK-3975,1 52620U 22052Y   23266.52277489  .00002976  00000-0  20496-3 0  9997,2 52620  53.2182 356.1518 0001717  77.4181 282.7003 15.08844378 75564,6917.867,95.437,540.92,538.544,0.0
52620.0,STARLINK-3975,PAYLOAD,2023-09-24 10:48:11,15.08842265,0.000152,53.2171,351.9891,73.7679,286.348,8.5015e-05,1.065e-05,0.0,0 STARLINK-3975,1 52620U 22052Y   23267.45013600  .00001065  00000-0  85015-4 0  9990,2 52620  53.2171 351.9891 0001520  73.7679 286.3480 15.08842265 75700,6917.873,95.437,540.79,538.687,0.0
52620.0,STARLINK-3975,PAYLOAD,2023-09-25 09:03:36,15.08822243,0.0001294,53.2177,347.8262,96.0263,264.0876,0.00068433,0.00010615,0.0,0 STARLINK-3975,1 52620U 22052Y   23268.37750818  .00010615  00000-0  68433-3 0  9996,2 52620  53.2177 347.8262 0001294  96.0263 264.0876 15.08822243 75848,6917.935,95.439,540.695,538.904,0.0
52620.0,STARLINK-3975,PAYLOAD,2023-09-25 12:14:21,15.08845087,0.0001609,53.2186,347.2314,101.6072,258.5101,0.00013414,1.848e-05,0.0,0 STARLINK-3975,1 52620U 22052Y   23268.50997409  .00001848  00000-0  13414-3 0  9997,2 52620  53.2186 347.2314 0001609 101.6072 258.5101 15.08845087 75481,6917.865,95.437,540.843,538.617,0.0
52620.0,STARLINK-3975,PAYLOAD,2023-09-26 10:29:46,15.08835379,0.0001432,53.217,343.0671,89.1645,270.9511,5.5645e-05,5.98e-06,0.0,0 STARLINK-3975,1 52620U 22052Y   23269.43734073  .00000598  00000-0  55645-4 0  9990,2 52620  53.2170 343.0671 0001432  89.1645 270.9511 15.08835379 76009,6917.895,95.438,540.75,538.769,0.0
52620.0,STARLINK-3975,PAYLOAD,2023-09-26 12:05:09,15.08839432,0.0001448,53.2169,342.7692,93.886,266.2298,0.00010783,1.429e-05,0.0,0 STARLINK-3975,1 52620U 22052Y   23269.50357856  .00001429  00000-0  10783-3 0  9995,2 52620  53.2169 342.7692 0001448  93.8860 266.2298 15.08839432 75636,6917.882,95.438,540.749,538.745,0.0
52620.0,STARLINK-3975,PAYLOAD,2023-09-27 11:55:55,15.08847319,0.000144,53.2171,338.3105,92.5415,267.5742,0.00011501,1.543e-05,0.0,0 STARLINK-3975,1 52620U 22052Y   23270.49717434  .00001543  00000-0  11501-3 0  9993,2 52620  53.2171 338.3105 0001440  92.5415 267.5742 15.08847319 75780,6917.858,95.437,540.719,538.727,0.0
52620.0,STARLINK-3975,PAYLOAD,2023-09-27 23:03:38,15.08835742,0.0001307,53.2162,336.2281,82.548,277.5661,5.3757e-05,5.68e-06,0.0,0 STARLINK-3975,1 52620U 22052Y   23270.96086186  .00000568  00000-0  53757-4 0  9994,2 52620  53.2162 336.2281 0001307  82.5480 277.5661 15.08835742 76234,6917.893,95.438,540.663,538.854,0.0
52620.0,STARLINK-3975,PAYLOAD,2023-09-28 11:46:44,15.08831072,0.0001495,53.2164,333.8496,83.6765,276.4398,-1.7598e-05,-5.68e-06,0.0,0 STARLINK-3975,1 52620U 22052Y   23271.49078715 -.00000568  00000-0 -17598-4 0  9997,2 52620  53.2164 333.8496 0001495  83.6765 276.4398 15.08831072 75936,6917.908,95.438,540.807,538.738,0.0
52620.0,STARLINK-3975,PAYLOAD,2023-09-29 10:02:07,15.08842163,0.0001455,53.216,329.6859,88.0484,272.0675,8.787e-05,1.111e-05,0.0,0 STARLINK-3975,1 52620U 22052Y   23272.41814454  .00001111  00000-0  87870-4 0  9991,2 52620  53.2160 329.6859 0001455  88.0484 272.0675 15.08842163 76452,6917.874,95.437,540.745,538.732,0.0
52620.0,STARLINK-3975,PAYLOAD,2023-09-29 11:37:30,15.08845452,0.0001457,53.2167,329.3892,86.6975,273.4184,0.00016518,2.342e-05,0.0,0 STARLINK-3975,1 52620U 22052Y   23272.48438404  .00002342  00000-0  16518-3 0  9992,2 52620  53.2167 329.3892 0001457  86.6975 273.4184 15.08845452 76087,6917.864,95.437,540.737,538.721,0.0
52620.0,STARLINK-3975,PAYLOAD,2023-09-29 22:45:12,15.08849711,0.0001369,53.2165,327.3073,88.5592,271.5557,0.00029567,4.422e-05,0.0,0 STARLINK-3975,1 52620U 22052Y   23272.94806102  .00004422  00000-0  29567-3 0  9996,2 52620  53.2165 327.3073 0001369  88.5592 271.5557 15.08849711 76155,6917.851,95.437,540.663,538.769,0.0
52620.0,STARLINK-3975,PAYLOAD,2023-09-30 09:52:54,15.0885404,0.0001472,53.2158,325.2254,95.8829,264.2331,0.00039037,5.933e-05,0.0,0 STARLINK-3975,1 52620U 22052Y   23273.41173856  .00005933  00000-0  39037-3 0  9993,2 52620  53.2158 325.2254 0001472  95.8829 264.2331 15.08854040 76604,6917.837,95.437,540.721,538.684,0.0
